NORAD_CAT_ID,OBJECT_NAME,OBJECT_TYPE,EPOCH,MEAN_MOTION,ECCENTRICITY,INCLINATION,RA_OF_ASC_NODE,ARG_OF_PERICENTER,MEAN_ANOMALY,BSTAR,MEAN_MOTION_DOT,MEAN_MOTION_DDOT,TLE_LINE0,TLE_LINE1,TLE_LINE2,SEMIMAJOR_AXIS,PERIOD,APOGEE,PERIGEE,DECAYED
52482.0,STARLINK-3813,PAYLOAD,2022-10-25 20:00:05,15.08831521,0.0001567,53.2167,174.6367,57.4061,302.7083,-0.0001203,-2.202e-05,0.0,0 STARLINK-3813,1 52482U 22049AH  22298.83339834 -.00002202  00000-0 -12030-3 0  9999,2 52482  53.2167 174.6367 0001567  57.4061 302.7083 15.08831521 26570,6917.906,95.438,540.855,538.687,0.0
52482.0,STARLINK-3813,PAYLOAD,2022-10-26 00:46:14,15.08835155,0.0001758,53.217,173.7444,59.5082,300.6084,-9.8182e-05,-1.85e-05,0.0,0 STARLINK-3813,1 52482U 22049AH  22299.03211700 -.00001850  00000-0 -98182-4 0  9994,2 52482  53.2170 173.7444 0001758  59.5082 300.6084 15.08835155 26764,6917.895,95.438,540.976,538.544,0.0
52482.0,STARLINK-3813,PAYLOAD,2022-10-27 02:12:25,15.08818617,0.0001794,53.2172,168.9864,39.5477,320.5646,0.00040763,6.202e-05,0.0,0 STARLINK-3813,1 52482U 22049AH  22300.09196043  .00006202  00000-0  40763-3 0  9990,2 52482  53.2172 168.9864 0001794  39.5477 320.5646 15.08818617 26921,6917.946,95.439,541.052,538.57,0.0
52482.0,STARLINK-3813,PAYLOAD,2022-10-27 08:33:57,15.08841145,0.0001831,53.2168,167.7973,62.3025,297.8153,0.00023068,3.385e-05,0.0,0 STARLINK-3813,1 52482U 22049AH  22300.35691259  .00003385  00000-0  23068-3 0  9996,2 52482  53.2168 167.7973 0001831  62.3025 297.8153 15.08841145 26807,6917.877,95.437,541.009,538.475,0.0
52482.0,STARLINK-3813,PAYLOAD,2022-10-27 19:41:39,15.08843846,0.0001914,53.2171,165.7159,63.5105,296.6083,0.00016042,2.266e-05,0.0,0 STARLINK-3813,1 52482U 22049AH  22300.82059294  .00002266  00000-0  16042-3 0  9996,2 52482  53.2171 165.7159 0001914  63.5105 296.6083 15.08843846 26875,6917.869000000002,95.437,541.058,538.41,0.0
52482.0,STARLINK-3813,PAYLOAD,2022-10-28 08:24:43,15.08849669,0.0001831,53.217,163.3367,63.9119,296.2061,0.00012111,1.64e-05,0.0,0 STARLINK-3813,1 52482U 22049AH  22301.35050842  .00001640  00000-0  12111-3 0  9993,2 52482  53.2170 163.3367 0001831  63.9119 296.2061 15.08849669 26956,6917.851,95.437,540.982,538.4490000000002,0.0
52482.0,STARLINK-3813,PAYLOAD,2022-10-28 19:32:25,15.08857609,0.0001815,53.2173,161.2551,64.5238,295.5942,6.0165e-05,6.7e-06,0.0,0 STARLINK-3813,1 52482U 22049AH  22301.81418208  .00000670  00000-0  60165-4 0  9993,2 52482  53.2173 161.2551 0001815  64.5238 295.5942 15.08857609 27024,6917.8269999999975,95.436,540.947,538.436,0.0
52482.0,STARLINK-3813,PAYLOAD,2022-10-28 21:07:48,15.08854457,0.000175,53.2172,160.9582,63.3494,296.7677,3.5561e-05,2.78e-06,0.0,0 STARLINK-3813,1 52482U 22049AH  22301.88042396  .00000278  00000-0  35561-4 0  9997,2 52482  53.2172 160.9582 0001750  63.3494 296.7677 15.08854457 27196,6917.8359999999975,95.437,540.9119999999998,538.491,0.0
52482.0,STARLINK-3813,PAYLOAD,2022-10-29 08:15:31,15.08843178,0.0001723,53.2163,158.8767,61.18899999999999,298.9275,-7.4179e-05,-1.469e-05,0.0,0 STARLINK-3813,1 52482U 22049AH  22302.34411151 -.00001469  00000-0 -74179-4 0  9991,2 52482  53.2163 158.8767 0001723  61.1890 298.9275 15.08843178 27100,6917.871,95.437,540.928,538.544,0.0
52482.0,STARLINK-3813,PAYLOAD,2022-10-29 20:58:36,15.08838008,0.0001708,53.2164,156.4979,59.4659,300.6501,-2.7946e-05,-7.33e-06,0.0,0 STARLINK-3813,1 52482U 22049AH  22302.87403183 -.00000733  00000-0 -27946-4 0  9998,2 52482  53.2164 156.4979 0001708  59.4659 300.6501 15.08838008 27341,6917.886,95.438,540.933,538.57,0.0
52482.0,STARLINK-3813,PAYLOAD,2022-10-30 00:09:22,15.08837893,0.0001666999999999,53.2165,155.9027,60.8314,299.2845,1.0412e-05,-1.22e-06,0.0,0 STARLINK-3813,1 52482U 22049AH  22303.00651028 -.00000122  00000-0  10412-4 0  9998,2 52482  53.2165 155.9027 0001667  60.8314 299.2845 15.08837893 27208,6917.887,95.438,540.905,538.599,0.0
52482.0,STARLINK-3813,PAYLOAD,2022-10-30 14:27:50,15.08846699,0.0001655,53.2161,153.2272,57.4021,302.7131,-1.6849e-05,-5.56e-06,0.0,0 STARLINK-3813,1 52482U 22049AH  22303.60266354 -.00000556  00000-0 -16849-4 0  9990,2 52482  53.2161 153.2272 0001655  57.4021 302.7131 15.08846699 27292,6917.86,95.437,540.87,538.58,0.0
52482.0,STARLINK-3813,PAYLOAD,2022-10-31 00:00:09,15.08840551,0.0001633,53.2179,151.442,70.4097,289.7072,-3.3707e-05,-8.24e-06,0.0,0 STARLINK-3813,1 52482U 22049AH  22304.00010753 -.00000824  00000-0 -33707-4 0  9995,2 52482  53.2179 151.4420 0001633  70.4097 289.7072 15.08840551 27356,6917.879,95.438,540.873,538.614,0.0
52482.0,STARLINK-3813,PAYLOAD,2022-10-31 20:40:11,15.08822379,0.0001665,53.2169,147.577,64.2429,295.8735,-3.0657e-05,-7.76e-06,0.0,0 STARLINK-3813,1 52482U 22049AH  22304.86124556 -.00000776  00000-0 -30657-4 0  9993,2 52482  53.2169 147.5770 0001665  64.2429 295.8735 15.08822379 27480,6917.934,95.439,540.951,538.6469999999998,0.0
52482.0,STARLINK-3813,PAYLOAD,2022-10-31 23:50:57,15.08825166,0.0001573,53.2164,146.9813,57.1251,302.9893,-4.4376e-05,-9.94e-06,0.0,0 STARLINK-3813,1 52482U 22049AH  22304.99372544 -.00000994  00000-0 -44376-4 0  9994,2 52482  53.2164 146.9813 0001573  57.1251 302.9893 15.08825166 27503,6917.926,95.438,540.879,538.703,0.0
52482.0,STARLINK-3813,PAYLOAD,2022-11-01 14:09:25,15.08859968,0.0001337,53.2164,144.3054,54.6139,305.4978,-0.00026157,-4.451e-05,0.0,0 STARLINK-3813,1 52482U 22049AH  22305.58987595 -.00004451  00000-0 -26157-3 0  9996,2 52482  53.2164 144.3054 0001337  54.6139 305.4978 15.08859968 27753,6917.819,95.436,540.609,538.759,0.0
52482.0,STARLINK-3813,PAYLOAD,2022-11-02 12:24:49,15.08837021,0.0001807,53.2131,140.1426,61.7888,298.3287,0.00015358,2.157e-05,0.0,0 STARLINK-3813,1 52482U 22049AH  22306.51723773  .00002157  00000-0  15358-3 0  9996,2 52482  53.2131 140.1426 0001807  61.7888 298.3287 15.08837021 27733,6917.889,95.438,541.005,538.504,0.0
52482.0,STARLINK-3813,PAYLOAD,2022-11-02 21:57:08,15.08834618,0.0001665,53.2159,138.3583,57.9837,302.1316,3.4464e-05,2.6e-06,0.0,0 STARLINK-3813,1 52482U 22049AH  22306.91468479  .00000260  00000-0  34464-4 0  9992,2 52482  53.2159 138.3583 0001665  57.9837 302.1316 15.08834618 27959,6917.897,95.438,540.914,538.61,0.0
52482.0,STARLINK-3813,PAYLOAD,2022-11-03 13:50:59,15.08849094,0.0001475,53.2154,135.3837,48.1223,311.9895,3.4489e-05,2.61e-06,0.0,0 STARLINK-3813,1 52482U 22049AH  22307.57707566  .00000261  00000-0  34489-4 0  9996,2 52482  53.2154 135.3837 0001475  48.1223 311.9895 15.08849094 28059,6917.853,95.437,540.738,538.697,0.0
52482.0,STARLINK-3813,PAYLOAD,2022-11-03 21:47:54,15.08843669,0.0001649,53.2151,133.89700000000002,60.3744,299.7412,0.00011149,1.487e-05,0.0,0 STARLINK-3813,1 52482U 22049AH  22307.90827546  .00001487  00000-0  11149-3 0  9992,2 52482  53.2151 133.8970 0001649  60.3744 299.7412 15.08843669 27941,6917.869000000002,95.437,540.875,538.5930000000002,0.0
52482.0,STARLINK-3813,PAYLOAD,2022-11-04 12:06:23,15.088390400000002,0.0001508,53.215,131.2203,57.5899,302.5238,7.1739e-05,8.54e-06,0.0,0 STARLINK-3813,1 52482U 22049AH  22308.50443849  .00000854  00000-0  71739-4 0  9998,2 52482  53.2150 131.2203 0001508  57.5899 302.5238 15.08839040 28199,6917.8830000000025,95.438,540.7919999999998,538.705,0.0
52482.0,STARLINK-3813,PAYLOAD,2022-11-04 18:27:55,15.08841363,0.0001498,53.2149,130.0308,57.5758,302.5379,8.472799999999999e-05,1.061e-05,0.0,0 STARLINK-3813,1 52482U 22049AH  22308.76939647  .00001061  00000-0  84728-4 0  9995,2 52482  53.2149 130.0308 0001498  57.5758 302.5379 15.08841363 28076,6917.876,95.437,540.778,538.705,0.0
52482.0,STARLINK-3813,PAYLOAD,2022-11-05 11:57:09,15.08847154,0.0001717,53.214,126.7584,68.7932,291.3243,4.1147e-05,3.67e-06,0.0,0 STARLINK-3813,1 52482U 22049AH  22309.49803157  .00000367  00000-0  41147-4 0  9998,2 52482  53.2140 126.7584 0001717  68.7932 291.3243 15.08847154 28346,6917.859,95.437,540.911,538.536,0.0
52482.0,STARLINK-3813,PAYLOAD,2022-11-05 18:18:42,15.08841688,0.0001767,53.2156,125.5706,61.698,298.4190000000001,-3.6164e-06,-3.46e-06,0.0,0 STARLINK-3813,1 52482U 22049AH  22309.76299609 -.00000346  00000-0 -36164-5 0  9992,2 52482  53.2156 125.5706 0001767  61.6980 298.4190 15.08841688 28385,6917.875,95.437,540.9630000000002,538.518,0.0
52482.0,STARLINK-3813,PAYLOAD,2022-11-06 11:47:57,15.08843188,0.0002011,53.2157,122.3004,63.032,297.0877,1.7274e-05,-1.3e-07,0.0,0 STARLINK-3813,1 52482U 22049AH  22310.49163407 -.00000013  00000-0  17274-4 0  9990,2 52482  53.2157 122.3004 0002011  63.0320 297.0877 15.08843188 28338,6917.871,95.437,541.127,538.344,0.0
52482.0,STARLINK-3813,PAYLOAD,2022-11-06 18:09:30,15.08836033,0.0001754999999999,53.2157,121.1107,51.9686,308.1464,-3.9474e-05,-9.16e-06,0.0,0 STARLINK-3813,1 52482U 22049AH  22310.75659979 -.00000916  00000-0 -39474-4 0  9992,2 52482  53.2157 121.1107 0001755  51.9686 308.1464 15.08836033 28533,6917.893,95.438,540.972,538.543,0.0
52482.0,STARLINK-3813,PAYLOAD,2022-11-08 03:32:35,15.08851711,0.0001614,53.2164,114.8651,50.5111,309.6024,-6.2662e-05,-1.286e-05,0.0,0 STARLINK-3813,1 52482U 22049AH  22312.14762897 -.00001286  00000-0 -62662-4 0  9997,2 52482  53.2164 114.8651 0001614  50.5111 309.6024 15.08851711 28747,6917.845,95.437,540.826,538.5930000000002,0.0
52482.0,STARLINK-3813,PAYLOAD,2022-11-08 09:54:08,15.08837309,0.0001763,53.2178,113.6775,51.4593,308.6557,0.00010142,1.326e-05,0.0,0 STARLINK-3813,1 52482U 22049AH  22312.41259385  .00001326  00000-0  10142-3 0  9998,2 52482  53.2178 113.6775 0001763  51.4593 308.6557 15.08837309 28786,6917.889,95.438,540.9730000000002,538.534,0.0
52482.0,STARLINK-3813,PAYLOAD,2022-11-08 17:51:03,15.08839713,0.000177,53.2183,112.1903,56.71100000000001,303.4052,0.00011616,1.561e-05,0.0,0 STARLINK-3813,1 52482U 22049AH  22312.74379278  .00001561  00000-0  11616-3 0  9996,2 52482  53.2183 112.1903 0001770  56.7110 303.4052 15.08839713 28672,6917.880999999999,95.438,540.971,538.5219999999998,0.0
